{"type": "FeatureCollection", "features": [{"type": "Feature", "id": "IT.0CAN", "properties": {"code": "0CAN", "name": "Cantiano Temporanea", "instrumentType": "UNK", "source": "IT", "network": "IT", "commType": "UNK", "location": "", "intensity": 4.9, "intensity_flag": "", "intensity_stddev": 0.26, "pga": 1.8412, "pgv": 0.8133, "distance": 71.612, "elev": null, "vs30": 415.56, "channels": [{"name": "--.HGE", "amplitudes": [{"name": "pga", "value": 1.8412, "units": "%g", "flag": "0", "ln_sigma": 0.0}, {"name": "pgv", "value": 0.7301, "units": "cm/s", "flag": "0", "ln_sigma": 0.0}, {"name": "sa(0.3)", "value": 4.6809, "units": "%g", "flag": "0", "ln_sigma": 0.0}, {"name": "sa(1.0)", "value": 0.6235, "units": "%g", "flag": "0", "ln_sigma": 0.0}, {"name": "sa(3.0)", "value": 0.2124, "units": "%g", "flag": "0", "ln_sigma": 0.0}]}, {"name": "--.HGN", "amplitudes": [{"name": "pga", "value": 1.412, "units": "%g", "flag": "0", "ln_sigma": 0.0}, {"name": "pgv", "value": 0.8133, "units": "cm/s", "flag": "0", "ln_sigma": 0.0}, {"name": "sa(0.3)", "value": 2.8281, "units": "%g", "flag": "0", "ln_sigma": 0.0}, {"name": "sa(1.0)", "value": 0.7769, "units": "%g", "flag": "0", "ln_sigma": 0.0}, {"name": "sa(3.0)", "value": 0.2027, "units": "%g", "flag": "0", "ln_sigma": 0.0}]}, {"name": "--.HGZ", "amplitudes": [{"name": "pga", "value": 1.1806, "units": "%g", "flag": "0", "ln_sigma": 0.0}, {"name": "pgv", "value": 0.7453, "units": "cm/s", "flag": "0", "ln_sigma": 0.0}, {"name": "sa(0.3)", "value": 2.7882, "units": "%g", "flag": "0", "ln_sigma": 0.0}, {"name": "sa(1.0)", "value": 0.7758, "units": "%g", "flag": "0", "ln_sigma": 0.0}, {"name": "sa(3.0)", "value": 0.2178, "units": "%g", "flag": "0", "ln_sigma": 0.0}]}], "station_type": "seismic", "nresp": "null", "predictions": [{"name": "sa(0.3)", "value": 7.3084, "value_rock": 7.3084, "value_soil": 8.0691, "units": "%g", "ln_tau": 0.502, "ln_phi": 0.6817, "ln_sigma": 0.8466, "ln_sigma_rock": 0.8471, "ln_sigma_soil": 0.8471, "ln_bias": -0.4059, "ln_bias_sigma": 0.1084}, {"name": "pga", "value": 2.7499, "value_rock": 2.7499, "value_soil": 3.291, "units": "%g", "ln_tau": 0.396, "ln_phi": 0.6778, "ln_sigma": 0.785, "ln_sigma_rock": 0.7847, "ln_sigma_soil": 0.7847, "ln_bias": -0.2036, "ln_bias_sigma": 0.1076}, {"name": "sa(1.0)", "value": 4.8809, "value_rock": 4.8809, "value_soil": 6.3023, "units": "%g", "ln_tau": 0.5112, "ln_phi": 0.6667, "ln_sigma": 0.8401, "ln_sigma_rock": 0.8408, "ln_sigma_soil": 0.8408, "ln_bias": -0.7124, "ln_bias_sigma": 0.1141}, {"name": "pgv", "value": 3.7502, "value_rock": 3.7502, "value_soil": 4.3457, "units": "cm/s", "ln_tau": 0.4467, "ln_phi": 0.6343, "ln_sigma": 0.7758, "ln_sigma_rock": 0.7747, "ln_sigma_soil": 0.7747, "ln_bias": -0.4998, "ln_bias_sigma": 0.1081}, {"name": "sa(3.0)", "value": 1.0943, "value_rock": 1.0943, "value_soil": 1.3886, "units": "%g", "ln_tau": 0.4642, "ln_phi": 0.7219, "ln_sigma": 0.8583, "ln_sigma_rock": 0.8573, "ln_sigma_soil": 0.8573, "ln_bias": -0.2944, "ln_bias_sigma": 0.1291}, {"name": "mmi", "value": 6.459, "value_rock": 6.459, "value_soil": 6.6094, "units": "intensity", "tau": 0.4559, "phi": 0.6976, "sigma": 0.8334, "sigma_rock": 0.8323, "sigma_soil": 0.8323, "bias": -0.5694, "bias_sigma": 0.1203}], "mmi_from_pgm": [{"name": "sa(0.3)", "value": 4.65, "sigma": 0.53, "flag": "0"}, {"name": "pga", "value": 4.92, "sigma": 0.35, "flag": "0"}, {"name": "sa(1.0)", "value": 4.93, "sigma": 0.36, "flag": "0"}, {"name": "pgv", "value": 4.9, "sigma": 0.26, "flag": "0"}, {"name": "sa(3.0)", "value": 4.95, "sigma": 0.29, "flag": "0"}], "distance_stddev": 0.0, "distances": {"repi": 81.254, "rhypo": 81.867, "rjb": 71.35, "rjb_var": 0.0, "rrup": 71.612, "rrup_var": 0.0}}, "geometry": {"type": "Point", "coordinates": [12.6308, 43.4723]}}, {"type": "Feature", "id": "IT.0MBT", "properties": {"code": "0MBT", "name": "Citta_di_Castello_(Ospizio)", "instrumentType": "UNK", "source": "IT", "network": "IT", "commType": "UNK", "location": "", "intensity": 6.2, "intensity_flag": "", "intensity_stddev": 0.26, "pga": 2.3958, "pgv": 2.801, "distance": 90.104, "elev": null, "vs30": 335.7, "channels": [{"name": "--.HGE", "amplitudes": [{"name": "pga", "value": 2.0527, "units": "%g", "flag": "0", "ln_sigma": 0.0}, {"name": "pgv", "value": 2.485, "units": "cm/s", "flag": "0", "ln_sigma": 0.0}, {"name": "sa(0.3)", "value": 6.7453, "units": "%g", "flag": "0", "ln_sigma": 0.0}, {"name": "sa(1.0)", "value": 3.12, "units": "%g", "flag": "0", "ln_sigma": 0.0}, {"name": "sa(3.0)", "value": 1.3984, "units": "%g", "flag": "0", "ln_sigma": 0.0}]}, {"name": "--.HGN", "amplitudes": [{"name": "pga", "value": 2.3958, "units": "%g", "flag": "0", "ln_sigma": 0.0}, {"name": "pgv", "value": 2.801, "units": "cm/s", "flag": "0", "ln_sigma": 0.0}, {"name": "sa(0.3)", "value": 6.9799, "units": "%g", "flag": "0", "ln_sigma": 0.0}, {"name": "sa(1.0)", "value": 4.3747, "units": "%g", "flag": "0", "ln_sigma": 0.0}, {"name": "sa(3.0)", "value": 1.1063, "units": "%g", "flag": "0", "ln_sigma": 0.0}]}, {"name": "--.HGZ", "amplitudes": [{"name": "pga", "value": 1.0672, "units": "%g", "flag": "0", "ln_sigma": 0.0}, {"name": "pgv", "value": 1.7685, "units": "cm/s", "flag": "0", "ln_sigma": 0.0}, {"name": "sa(0.3)", "value": 2.4717, "units": "%g", "flag": "0", "ln_sigma": 0.0}, {"name": "sa(1.0)", "value": 1.9168, "units": "%g", "flag": "0", "ln_sigma": 0.0}, {"name": "sa(3.0)", "value": 0.6582, "units": "%g", "flag": "0", "ln_sigma": 0.0}]}], "station_type": "seismic", "nresp": "null", "predictions": [{"name": "sa(0.3)", "value": 5.8129, "value_rock": 5.2649, "value_soil": 5.8129, "units": "%g", "ln_tau": 0.502, "ln_phi": 0.6817, "ln_sigma": 0.8466, "ln_sigma_rock": 0.8471, "ln_sigma_soil": 0.8471, "ln_bias": -0.4059, "ln_bias_sigma": 0.1084}, {"name": "pga", "value": 2.4269, "value_rock": 2.0279, "value_soil": 2.4269, "units": "%g", "ln_tau": 0.396, "ln_phi": 0.6778, "ln_sigma": 0.785, "ln_sigma_rock": 0.7847, "ln_sigma_soil": 0.7847, "ln_bias": -0.2036, "ln_bias_sigma": 0.1076}, {"name": "sa(1.0)", "value": 5.0629, "value_rock": 3.921, "value_soil": 5.0629, "units": "%g", "ln_tau": 0.5112, "ln_phi": 0.6667, "ln_sigma": 0.8401, "ln_sigma_rock": 0.8408, "ln_sigma_soil": 0.8408, "ln_bias": -0.7124, "ln_bias_sigma": 0.1141}, {"name": "pgv", "value": 3.4343, "value_rock": 2.9637, "value_soil": 3.4343, "units": "cm/s", "ln_tau": 0.4467, "ln_phi": 0.6343, "ln_sigma": 0.7758, "ln_sigma_rock": 0.7747, "ln_sigma_soil": 0.7747, "ln_bias": -0.4998, "ln_bias_sigma": 0.1081}, {"name": "sa(3.0)", "value": 1.1947, "value_rock": 0.9414, "value_soil": 1.1947, "units": "%g", "ln_tau": 0.4642, "ln_phi": 0.7219, "ln_sigma": 0.8583, "ln_sigma_rock": 0.8573, "ln_sigma_soil": 0.8573, "ln_bias": -0.2944, "ln_bias_sigma": 0.1291}, {"name": "mmi", "value": 6.3692, "value_rock": 6.2188, "value_soil": 6.3692, "units": "intensity", "tau": 0.4559, "phi": 0.6976, "sigma": 0.8334, "sigma_rock": 0.8323, "sigma_soil": 0.8323, "bias": -0.5694, "bias_sigma": 0.1203}], "mmi_from_pgm": [{"name": "sa(0.3)", "value": 5.0, "sigma": 0.53, "flag": "0"}, {"name": "pga", "value": 5.22, "sigma": 0.35, "flag": "0"}, {"name": "sa(1.0)", "value": 6.47, "sigma": 0.36, "flag": "0"}, {"name": "pgv", "value": 6.16, "sigma": 0.26, "flag": "0"}, {"name": "sa(3.0)", "value": 6.58, "sigma": 0.29, "flag": "0"}], "distance_stddev": 0.0, "distances": {"repi": 99.034, "rhypo": 99.538, "rjb": 89.591, "rjb_var": 0.0, "rrup": 90.104, "rrup_var": 0.0}}, "geometry": {"type": "Point", "coordinates": [12.2488, 43.4621]}}, {"type": "Feature", "id": "IT.0PIO", "properties": {"code": "0PIO", "name": "Piobbico_Temporanea", "instrumentType": "UNK", "source": "IT", "network": "IT", "commType": "UNK", "location": "", "intensity": 5.0, "intensity_flag": "", "intensity_stddev": 0.26, "pga": 1.5263, "pgv": 0.8609, "distance": 87.485, "elev": null, "vs30": 503.99, "channels": [{"name": "--.HGE", "amplitudes": [{"name": "pga", "value": 1.336, "units": "%g", "flag": "0", "ln_sigma": 0.0}, {"name": "pgv", "value": 0.8609, "units": "cm/s", "flag": "0", "ln_sigma": 0.0}, {"name": "sa(0.3)", "value": 2.7854, "units": "%g", "flag": "0", "ln_sigma": 0.0}, {"name": "sa(1.0)", "value": 0.8516, "units": "%g", "flag": "0", "ln_sigma": 0.0}, {"name": "sa(3.0)", "value": 0.1794, "units": "%g", "flag": "0", "ln_sigma": 0.0}]}, {"name": "--.HGN", "amplitudes": [{"name": "pga", "value": 1.5263, "units": "%g", "flag": "0", "ln_sigma": 0.0}, {"name": "pgv", "value": 0.5945, "units": "cm/s", "flag": "0", "ln_sigma": 0.0}, {"name": "sa(0.3)", "value": 3.594, "units": "%g", "flag": "0", "ln_sigma": 0.0}, {"name": "sa(1.0)", "value": 0.4974, "units": "%g", "flag": "0", "ln_sigma": 0.0}, {"name": "sa(3.0)", "value": 0.146, "units": "%g", "flag": "0", "ln_sigma": 0.0}]}, {"name": "--.HGZ", "amplitudes": [{"name": "pga", "value": 0.8799, "units": "%g", "flag": "0", "ln_sigma": 0.0}, {"name": "pgv", "value": 0.6043, "units": "cm/s", "flag": "0", "ln_sigma": 0.0}, {"name": "sa(0.3)", "value": 3.0442, "units": "%g", "flag": "0", "ln_sigma": 0.0}, {"name": "sa(1.0)", "value": 0.6069, "units": "%g", "flag": "0", "ln_sigma": 0.0}, {"name": "sa(3.0)", "value": 0.2276, "units": "%g", "flag": "0", "ln_sigma": 0.0}]}], "station_type": "seismic", "nresp": "null", "predictions": [{"name": "sa(0.3)", "value": 5.4834, "value_rock": 5.4834, "value_soil": 6.0541, "units": "%g", "ln_tau": 0.502, "ln_phi": 0.6817, "ln_sigma": 0.8466, "ln_sigma_rock": 0.8471, "ln_sigma_soil": 0.8471, "ln_bias": -0.4059, "ln_bias_sigma": 0.1084}, {"name": "pga", "value": 2.104, "value_rock": 2.104, "value_soil": 2.5179, "units": "%g", "ln_tau": 0.396, "ln_phi": 0.6778, "ln_sigma": 0.785, "ln_sigma_rock": 0.7847, "ln_sigma_soil": 0.7847, "ln_bias": -0.2036, "ln_bias_sigma": 0.1076}, {"name": "sa(1.0)", "value": 4.0263, "value_rock": 4.0263, "value_soil": 5.1989, "units": "%g", "ln_tau": 0.5112, "ln_phi": 0.6667, "ln_sigma": 0.8401, "ln_sigma_rock": 0.8408, "ln_sigma_soil": 0.8408, "ln_bias": -0.7124, "ln_bias_sigma": 0.1141}, {"name": "pgv", "value": 3.049, "value_rock": 3.049, "value_soil": 3.5331, "units": "cm/s", "ln_tau": 0.4467, "ln_phi": 0.6343, "ln_sigma": 0.7758, "ln_sigma_rock": 0.7747, "ln_sigma_soil": 0.7747, "ln_bias": -0.4998, "ln_bias_sigma": 0.1081}, {"name": "sa(3.0)", "value": 0.9583, "value_rock": 0.9583, "value_soil": 1.2161, "units": "%g", "ln_tau": 0.4642, "ln_phi": 0.7219, "ln_sigma": 0.8583, "ln_sigma_rock": 0.8573, "ln_sigma_soil": 0.8573, "ln_bias": -0.2944, "ln_bias_sigma": 0.1291}, {"name": "mmi", "value": 6.2478, "value_rock": 6.2478, "value_soil": 6.3982, "units": "intensity", "tau": 0.4559, "phi": 0.6976, "sigma": 0.8334, "sigma_rock": 0.8323, "sigma_soil": 0.8323, "bias": -0.5694, "bias_sigma": 0.1203}], "mmi_from_pgm": [{"name": "sa(0.3)", "value": 4.41, "sigma": 0.53, "flag": "0"}, {"name": "pga", "value": 4.71, "sigma": 0.35, "flag": "0"}, {"name": "sa(1.0)", "value": 5.01, "sigma": 0.36, "flag": "0"}, {"name": "pgv", "value": 4.96, "sigma": 0.26, "flag": "0"}, {"name": "sa(3.0)", "value": 4.8, "sigma": 0.29, "flag": "0"}], "distance_stddev": 0.0, "distances": {"repi": 97.069, "rhypo": 97.583, "rjb": 87.172, "rjb_var": 0.0, "rrup": 87.485, "rrup_var": 0.0}}, "geometry": {"type": "Point", "coordinates": [12.5127, 43.5873]}}, {"type": "Feature", "id": "IT.0REN", "properties": {"code": "0REN", "name": "Renzetti Temporanea", "instrumentType": "UNK", "source": "IT", "network": "IT", "commType": "UNK", "location": "", "intensity": 5.0, "intensity_flag": "", "intensity_stddev": 0.26, "pga": 0.3236, "pgv": 0.9189, "distance": 95.868, "elev": null, "vs30": 577.3, "channels": [{"name": "--.HGE", "amplitudes": [{"name": "pga", "value": 0.2772, "units": "%g", "flag": "0", "ln_sigma": 0.0}, {"name": "pgv", "value": 0.5911, "units": "cm/s", "flag": "0", "ln_sigma": 0.0}, {"name": "sa(0.3)", "value": 0.6835, "units": "%g", "flag": "0", "ln_sigma": 0.0}, {"name": "sa(1.0)", "value": 0.571, "units": "%g", "flag": "0", "ln_sigma": 0.0}, {"name": "sa(3.0)", "value": 0.3528, "units": "%g", "flag": "0", "ln_sigma": 0.0}]}, {"name": "--.HGN", "amplitudes": [{"name": "pga", "value": 0.3236, "units": "%g", "flag": "0", "ln_sigma": 0.0}, {"name": "pgv", "value": 0.9189, "units": "cm/s", "flag": "0", "ln_sigma": 0.0}, {"name": "sa(0.3)", "value": 0.9446, "units": "%g", "flag": "0", "ln_sigma": 0.0}, {"name": "sa(1.0)", "value": 0.4989, "units": "%g", "flag": "0", "ln_sigma": 0.0}, {"name": "sa(3.0)", "value": 0.5773, "units": "%g", "flag": "0", "ln_sigma": 0.0}]}, {"name": "--.HGZ", "amplitudes": [{"name": "pga", "value": 0.3035, "units": "%g", "flag": "0", "ln_sigma": 0.0}, {"name": "pgv", "value": 0.842, "units": "cm/s", "flag": "0", "ln_sigma": 0.0}, {"name": "sa(0.3)", "value": 0.6643, "units": "%g", "flag": "0", "ln_sigma": 0.0}, {"name": "sa(1.0)", "value": 0.4551, "units": "%g", "flag": "0", "ln_sigma": 0.0}, {"name": "sa(3.0)", "value": 0.9429, "units": "%g", "flag": "0", "ln_sigma": 0.0}]}], "station_type": "seismic", "nresp": "null", "predictions": [{"name": "sa(0.3)", "value": 4.7902, "value_rock": 4.7902, "value_soil": 5.2888, "units": "%g", "ln_tau": 0.502, "ln_phi": 0.6817, "ln_sigma": 0.8466, "ln_sigma_rock": 0.8471, "ln_sigma_soil": 0.8471, "ln_bias": -0.4059, "ln_bias_sigma": 0.1084}, {"name": "pga", "value": 1.8635, "value_rock": 1.8635, "value_soil": 2.2301, "units": "%g", "ln_tau": 0.396, "ln_phi": 0.6778, "ln_sigma": 0.785, "ln_sigma_rock": 0.7847, "ln_sigma_soil": 0.7847, "ln_bias": -0.2036, "ln_bias_sigma": 0.1076}, {"name": "sa(1.0)", "value": 3.6895, "value_rock": 3.6895, "value_soil": 4.764, "units": "%g", "ln_tau": 0.5112, "ln_phi": 0.6667, "ln_sigma": 0.8401, "ln_sigma_rock": 0.8408, "ln_sigma_soil": 0.8408, "ln_bias": -0.7124, "ln_bias_sigma": 0.1141}, {"name": "pgv", "value": 2.7771, "value_rock": 2.7771, "value_soil": 3.218, "units": "cm/s", "ln_tau": 0.4467, "ln_phi": 0.6343, "ln_sigma": 0.7758, "ln_sigma_rock": 0.7747, "ln_sigma_soil": 0.7747, "ln_bias": -0.4998, "ln_bias_sigma": 0.1081}, {"name": "sa(3.0)", "value": 0.9042, "value_rock": 0.9042, "value_soil": 1.1475, "units": "%g", "ln_tau": 0.4642, "ln_phi": 0.7219, "ln_sigma": 0.8583, "ln_sigma_rock": 0.8573, "ln_sigma_soil": 0.8573, "ln_bias": -0.2944, "ln_bias_sigma": 0.1291}, {"name": "mmi", "value": 6.1524, "value_rock": 6.1524, "value_soil": 6.3028, "units": "intensity", "tau": 0.4559, "phi": 0.6976, "sigma": 0.8334, "sigma_rock": 0.8323, "sigma_soil": 0.8323, "bias": -0.5694, "bias_sigma": 0.1203}], "mmi_from_pgm": [{"name": "sa(0.3)", "value": 3.22, "sigma": 0.53, "flag": "0"}, {"name": "pga", "value": 2.97, "sigma": 0.35, "flag": "0"}, {"name": "sa(1.0)", "value": 4.65, "sigma": 0.36, "flag": "0"}, {"name": "pgv", "value": 5.02, "sigma": 0.26, "flag": "0"}, {"name": "sa(3.0)", "value": 5.82, "sigma": 0.29, "flag": "0"}], "distance_stddev": 0.0, "distances": {"repi": 105.033, "rhypo": 105.508, "rjb": 95.395, "rjb_var": 0.0, "rrup": 95.868, "rrup_var": 0.0}}, "geometry": {"type": "Point", "coordinates": [12.264, 43.5462]}}, {"type": "Feature", "id": "IT.0UM8", "properties": {"code": "0UM8", "name": "Umbertide Temporanea", "instrumentType": "UNK", "source": "IT", "network": "IT", "commType": "UNK", "location": "", "intensity": 6.3, "intensity_flag": "", "intensity_stddev": 0.26, "pga": 3.2642, "pgv": 3.0928, "distance": 73.2, "elev": null, "vs30": 395.26, "channels": [{"name": "--.HGE", "amplitudes": [{"name": "pga", "value": 2.73, "units": "%g", "flag": "0", "ln_sigma": 0.0}, {"name": "pgv", "value": 3.0105, "units": "cm/s", "flag": "0", "ln_sigma": 0.0}, {"name": "sa(0.3)", "value": 6.6156, "units": "%g", "flag": "0", "ln_sigma": 0.0}, {"name": "sa(1.0)", "value": 4.4337, "units": "%g", "flag": "0", "ln_sigma": 0.0}, {"name": "sa(3.0)", "value": 1.7139, "units": "%g", "flag": "0", "ln_sigma": 0.0}]}, {"name": "--.HGN", "amplitudes": [{"name": "pga", "value": 3.2642, "units": "%g", "flag": "0", "ln_sigma": 0.0}, {"name": "pgv", "value": 3.0928, "units": "cm/s", "flag": "0", "ln_sigma": 0.0}, {"name": "sa(0.3)", "value": 6.0533, "units": "%g", "flag": "0", "ln_sigma": 0.0}, {"name": "sa(1.0)", "value": 5.199, "units": "%g", "flag": "0", "ln_sigma": 0.0}, {"name": "sa(3.0)", "value": 0.9285, "units": "%g", "flag": "0", "ln_sigma": 0.0}]}, {"name": "--.HGZ", "amplitudes": [{"name": "pga", "value": 1.6815, "units": "%g", "flag": "0", "ln_sigma": 0.0}, {"name": "pgv", "value": 1.6026, "units": "cm/s", "flag": "0", "ln_sigma": 0.0}, {"name": "sa(0.3)", "value": 3.1528, "units": "%g", "flag": "0", "ln_sigma": 0.0}, {"name": "sa(1.0)", "value": 3.8285, "units": "%g", "flag": "0", "ln_sigma": 0.0}, {"name": "sa(3.0)", "value": 0.6073, "units": "%g", "flag": "0", "ln_sigma": 0.0}]}], "station_type": "seismic", "nresp": "null", "predictions": [{"name": "sa(0.3)", "value": 7.1412, "value_rock": 7.1412, "value_soil": 7.8844, "units": "%g", "ln_tau": 0.502, "ln_phi": 0.6817, "ln_sigma": 0.8466, "ln_sigma_rock": 0.8471, "ln_sigma_soil": 0.8471, "ln_bias": -0.4059, "ln_bias_sigma": 0.1084}, {"name": "pga", "value": 2.69, "value_rock": 2.69, "value_soil": 3.2192, "units": "%g", "ln_tau": 0.396, "ln_phi": 0.6778, "ln_sigma": 0.785, "ln_sigma_rock": 0.7847, "ln_sigma_soil": 0.7847, "ln_bias": -0.2036, "ln_bias_sigma": 0.1076}, {"name": "sa(1.0)", "value": 4.8041, "value_rock": 4.8041, "value_soil": 6.2031, "units": "%g", "ln_tau": 0.5112, "ln_phi": 0.6667, "ln_sigma": 0.8401, "ln_sigma_rock": 0.8408, "ln_sigma_soil": 0.8408, "ln_bias": -0.7124, "ln_bias_sigma": 0.1141}, {"name": "pgv", "value": 3.6866, "value_rock": 3.6866, "value_soil": 4.272, "units": "cm/s", "ln_tau": 0.4467, "ln_phi": 0.6343, "ln_sigma": 0.7758, "ln_sigma_rock": 0.7747, "ln_sigma_soil": 0.7747, "ln_bias": -0.4998, "ln_bias_sigma": 0.1081}, {"name": "sa(3.0)", "value": 1.0821, "value_rock": 1.0821, "value_soil": 1.3732, "units": "%g", "ln_tau": 0.4642, "ln_phi": 0.7219, "ln_sigma": 0.8583, "ln_sigma_rock": 0.8573, "ln_sigma_soil": 0.8573, "ln_bias": -0.2944, "ln_bias_sigma": 0.1291}, {"name": "mmi", "value": 6.4416, "value_rock": 6.4416, "value_soil": 6.592, "units": "intensity", "tau": 0.4559, "phi": 0.6976, "sigma": 0.8334, "sigma_rock": 0.8323, "sigma_soil": 0.8323, "bias": -0.5694, "bias_sigma": 0.1203}], "mmi_from_pgm": [{"name": "sa(0.3)", "value": 4.96, "sigma": 0.53, "flag": "0"}, {"name": "pga", "value": 5.56, "sigma": 0.35, "flag": "0"}, {"name": "sa(1.0)", "value": 6.62, "sigma": 0.36, "flag": "0"}, {"name": "pgv", "value": 6.26, "sigma": 0.26, "flag": "0"}, {"name": "sa(3.0)", "value": 6.76, "sigma": 0.29, "flag": "0"}], "distance_stddev": 0.0, "distances": {"repi": 81.669, "rhypo": 82.278, "rjb": 72.537, "rjb_var": 0.0, "rrup": 73.2, "rrup_var": 0.0}}, "geometry": {"type": "Point", "coordinates": [12.341, 43.3041]}}, {"type": "Feature", "id": "IT.ACC", "properties": {"code": "ACC", "name": "Accumoli", "instrumentType": "UNK", "source": "IT", "network": "IT", "commType": "UNK", "location": "", "intensity": 9.0, "intensity_flag": "", "intensity_stddev": 0.26, "pga": 46.5232, "pgv": 43.198, "distance": 5.735, "elev": null, "vs30": 623.9, "channels": [{"name": "--.HGE", "amplitudes": [{"name": "pga", "value": 46.5232, "units": "%g", "flag": "0", "ln_sigma": 0.0}, {"name": "pgv", "value": 38.5993, "units": "cm/s", "flag": "0", "ln_sigma": 0.0}, {"name": "sa(0.3)", "value": 135.529, "units": "%g", "flag": "0", "ln_sigma": 0.0}, {"name": "sa(1.0)", "value": 37.0822, "units": "%g", "flag": "0", "ln_sigma": 0.0}, {"name": "sa(3.0)", "value": 7.291, "units": "%g", "flag": "0", "ln_sigma": 0.0}]}, {"name": "--.HGN", "amplitudes": [{"name": "pga", "value": 39.8739, "units": "%g", "flag": "0", "ln_sigma": 0.0}, {"name": "pgv", "value": 43.198, "units": "cm/s", "flag": "0", "ln_sigma": 0.0}, {"name": "sa(0.3)", "value": 114.9443, "units": "%g", "flag": "0", "ln_sigma": 0.0}, {"name": "sa(1.0)", "value": 63.3598, "units": "%g", "flag": "0", "ln_sigma": 0.0}, {"name": "sa(3.0)", "value": 6.9977, "units": "%g", "flag": "0", "ln_sigma": 0.0}]}, {"name": "--.HGZ", "amplitudes": [{"nam